ASTRA 2E                
1 39285U 13056A   26185.51302840  .00000163  00000+0  00000+0 0  9995
2 39285   0.0723 317.7137 0002754 162.5208  15.5027  1.00275893 46591
FM-6                    
1 39360U 13058A   26183.70211649 -.00000005  00000+0  00000+0 0  9992
2 39360   0.0160  40.7600 0001960 138.6453 237.7772  1.00271889 46228
RADUGA-1M 3             
1 39375U 13062A   26183.73212435  .00000161  00000+0  00000+0 0  9992
2 39375   5.9949  72.1589 0001877 282.0892 225.0751  1.00273797 46267
SES-8                   
1 39460U 13071A   26185.59747538 -.00000257  00000+0  00000+0 0  9997
2 39460   0.0385 266.1982 0002946 194.6264 131.8789  1.00271885 44600
INMARSAT 5-F1           
1 39476U 13073A   26183.86988020  .00000038  00000+0  00000+0 0  9993
2 39476   0.0185  28.4066 0000581 336.8665 291.4245  1.00272744 45735
TKSAT-1 (TUPAC KATARI)  
1 39481U 13075A   26185.56137524 -.00000182  00000+0  00000+0 0  9996
2 39481   0.0398 130.6603 0002671 326.7079 300.0992  1.00270304 45779
GSAT-14                 
1 39498U 14001A   26185.52204177 -.00000064  00000+0  00000+0 0  9998
2 39498   0.0404 227.4327 0001328 337.9064 339.1112  1.00271061 45553
THAICOM 6               
1 39500U 14002A   26185.59426870 -.00000108  00000+0  00000+0 0  9995
2 39500   0.0632 107.4631 0004691  11.7894  95.7963  1.00270565 45635
TDRS 12                 
1 39504U 14004A   26185.49924833 -.00000259  00000+0  00000+0 0  9999
2 39504   3.9933  19.3560 0003740 201.9629 199.9480  1.00276931 44453
ABS-2                   
1 39508U 14006A   26185.52221510 -.00000074  00000+0  00000+0 0  9996
2 39508   0.0269  73.5377 0003725  14.2678  97.6420  1.00271743 45452
ATHENA-FIDUS            
1 39509U 14006B   26184.58815476  .00000165  00000+0  00000+0 0  9992
2 39509   0.0305  95.7359 0001624  20.1277  55.2824  1.00273035 45259
TURKSAT 4A              
1 39522U 14007A   26185.58694204  .00000159  00000+0  00000+0 0  9996
2 39522   0.0821 281.5941 0000693 343.5202 270.7830  1.00269581 45144
EXPRESS-AT1             
1 39612U 14010A   26185.52013509  .00000017  00000+0  00000+0 0  9990
2 39612   0.3001  85.4920 0004568  46.4951  42.2629  1.00308194 44994
EXPRESS-AT2             
1 39613U 14010B   26185.51848843  .00000000  00000+0  00000+0 0  9999
2 39613   0.0194  31.2706 0000219  97.2986  36.6114  1.00270819 44670
AMAZONAS 4A             
1 39616U 14011A   26183.78172192 -.00000241  00000+0  00000+0 0  9995
2 39616   0.0699 210.9618 0004941 278.3284 358.9301  1.00269478 44879
ASTRA 5B                
1 39617U 14011B   26183.85175605  .00000148  00000+0  00000+0 0  9991
2 39617   0.0771 302.4799 0002214 165.1332 143.4211  1.00274657 44823
IRNSS-1B                
1 39635U 14017A   26184.73411578  .00000139  00000+0  00000+0 0  9997
2 39635  28.8962 240.1173 0022907 194.5837 166.3850  1.00272129 44964
LUCH-5V                 
1 39727U 14023A   26185.59747537 -.00000258  00000+0  00000+0 0  9991
2 39727   5.1735  69.5719 0002670  59.9180 102.9323  1.00269195 44534
KAZSAT-3                
1 39728U 14023B   26183.77476564  .00000071  00000+0  00000+0 0  9991
2 39728   0.0106  10.0372 0000339 160.4347  87.7460  1.00274193 42613
EUTELSAT 3B             
1 39773U 14030A   26185.57931534  .00000032  00000+0  00000+0 0  9999
2 39773   0.0611  10.0138 0004104  91.0769  33.1371  1.00272157 44240
ASIASAT 8 (AMOS-7)      
1 40107U 14046A   26185.59955538 -.00000321  00000+0  00000+0 0  9993
2 40107   0.0333 272.3716 0001618 184.5351 146.8491  1.00273419102322
ASIASAT 6               
1 40141U 14052A   26185.60241539 -.00000350  00000+0  00000+0 0  9991
2 40141   0.0288 270.3073 0000798 211.2792 137.8078  1.00273268 43257
OPTUS 10                
1 40146U 14054A   26184.59281078 -.00000136  00000+0  00000+0 0  9999
2 40146   0.0560 293.6774 0002097 169.1762 188.1804  1.00270440 43191
MEASAT-3B               
1 40147U 14054B   26185.59678204 -.00000229  00000+0  00000+0 0  9995
2 40147   0.0259  21.0791 0002543  66.2104 141.6443  1.00270721 43085
HIMAWARI-8              
1 40267U 14060A   26185.60656330 -.00000263  00000+0  00000+0 0  9991
2 40267   0.0184  25.2039 0000985  89.0750 167.3757  1.00271032 42936
IRNSS-1C                
1 40269U 14061A   26185.30994771 -.00000153  00000+0  00000+0 0  9993
2 40269   6.5603  88.6045 0022112   4.3399  23.9391  1.00274056 42862
INTELSAT 30 (IS-30)     
1 40271U 14062A   26183.56378632 -.00000141  00000+0  00000+0 0  9992
2 40271   0.0214  49.9436 0001444 357.0524 341.5175  1.00277454  6942
ARSAT 1                 
1 40272U 14062B   26183.65528010 -.00000249  00000+0  00000+0 0  9999
2 40272   0.0392 290.9521 0001999 168.7347 345.0962  1.00270091 42783
GSAT-16                 
1 40332U 14078A   26183.88998366  .00000096  00000+0  00000+0 0  9992
2 40332   0.0472 262.0432 0007812 186.4293 207.9354  1.00271348 42267
DIRECTV 14              
1 40333U 14078B   26183.42034461 -.00000115  00000+0  00000+0 0  9993
2 40333   0.0102  26.2148 0000293   2.4668 303.8682  1.00271936 42196
