OBJECT_NAME,OBJECT_ID,EPOCH,MEAN_MOTION,ECCENTRICITY,INCLINATION,RA_OF_ASC_NODE,ARG_OF_PERICENTER,MEAN_ANOMALY,EPHEMERIS_TYPE,CLASSIFICATION_TYPE,NORAD_CAT_ID,ELEMENT_SET_NO,REV_AT_EPOCH,BSTAR,MEAN_MOTION_DOT,MEAN_MOTION_DDOT
ASTRA 2E,2013-056A,2026-07-04T12:18:45.653760,1.00275893,.00027548,0.0723,317.7137,162.5208,15.5027,0,U,39285,999,4659,0,.163E-5,0
FM-6,2013-058A,2026-07-02T16:51:02.864736,1.00271889,.00019604,0.0160,40.7600,138.6453,237.7772,0,U,39360,999,4622,0,-.5E-7,0
RADUGA-1M 3,2013-062A,2026-07-02T17:34:15.543840,1.00273797,.00018777,5.9949,72.1589,282.0892,225.0751,0,U,39375,999,4626,0,.161E-5,0
SES-8,2013-071A,2026-07-04T14:20:21.872832,1.00271885,.00029464,0.0385,266.1982,194.6264,131.8789,0,U,39460,999,4460,0,-.257E-5,0
INMARSAT 5-F1,2013-073A,2026-07-02T20:52:37.649280,1.00272744,.00005811,0.0185,28.4066,336.8665,291.4245,0,U,39476,999,4573,0,.38E-6,0
TKSAT-1 (TUPAC KATARI),2013-075A,2026-07-04T13:28:22.820736,1.00270304,.00026711,0.0398,130.6603,326.7079,300.0992,0,U,39481,999,4577,0,-.182E-5,0
GSAT-14,2014-001A,2026-07-04T12:31:44.408928,1.00271061,.00013287,0.0404,227.4327,337.9064,339.1112,0,U,39498,999,4555,0,-.64E-6,0
THAICOM 6,2014-002A,2026-07-04T14:15:44.815680,1.00270565,.00046911,0.0632,107.4631,11.7894,95.7963,0,U,39500,999,4563,0,-.108E-5,0
TDRS 12,2014-004A,2026-07-04T11:58:55.055712,1.00276931,.00037408,3.9933,19.3560,201.9629,199.9480,0,U,39504,999,4445,0,-.259E-5,0
ABS-2,2014-006A,2026-07-04T12:31:59.384640,1.00271743,.00037257,0.0269,73.5377,14.2678,97.6420,0,U,39508,999,4545,0,-.74E-6,0
ATHENA-FIDUS,2014-006B,2026-07-03T14:06:56.571264,1.00273035,.00016243,0.0305,95.7359,20.1277,55.2824,0,U,39509,999,4525,0,.165E-5,0
TURKSAT 4A,2014-007A,2026-07-04T14:05:11.792256,1.00269581,.00006933,0.0821,281.5941,343.5202,270.7830,0,U,39522,999,4514,0,.159E-5,0
EXPRESS-AT1,2014-010A,2026-07-04T12:28:59.671776,1.00308194,.00045681,0.3001,85.4920,46.4951,42.2629,0,U,39612,999,4499,0,.17E-6,0
EXPRESS-AT2,2014-010B,2026-07-04T12:26:37.400352,1.00270819,.00002193,0.0194,31.2706,97.2986,36.6114,0,U,39613,999,4467,0,0,0
AMAZONAS 4A,2014-011A,2026-07-02T18:45:40.773888,1.00269478,.00049412,0.0699,210.9618,278.3284,358.9301,0,U,39616,999,4487,0,-.241E-5,0
ASTRA 5B,2014-011B,2026-07-02T20:26:31.722720,1.00274657,.00022147,0.0771,302.4799,165.1332,143.4211,0,U,39617,999,4482,0,.148E-5,0
IRNSS-1B,2014-017A,2026-07-03T17:37:07.603392,1.00272129,.00229079,28.8962,240.1173,194.5837,166.3850,0,U,39635,999,4496,0,.139E-5,0
LUCH-5V,2014-023A,2026-07-04T14:20:21.871968,1.00269195,.000267,5.1735,69.5719,59.9180,102.9323,0,U,39727,999,4453,0,-.258E-5,0
KAZSAT-3,2014-023B,2026-07-02T18:35:39.751296,1.00274193,.00003398,0.0106,10.0372,160.4347,87.7460,0,U,39728,999,4261,0,.71E-6,0
EUTELSAT 3B,2014-030A,2026-07-04T13:54:12.845376,1.00272157,.00041041,0.0611,10.0138,91.0769,33.1371,0,U,39773,999,4424,0,.32E-6,0
ASIASAT 8 (AMOS-7),2014-046A,2026-07-04T14:23:21.584832,1.00273419,.00016182,0.0333,272.3716,184.5351,146.8491,0,U,40107,999,10232,0,-.321E-5,0
ASIASAT 6,2014-052A,2026-07-04T14:27:28.689696,1.00273268,.00007987,0.0288,270.3073,211.2792,137.8078,0,U,40141,999,4325,0,-.35E-5,0
OPTUS 10,2014-054A,2026-07-03T14:13:38.851392,1.00270440,.00020978,0.0560,293.6774,169.1762,188.1804,0,U,40146,999,4319,0,-.136E-5,0
MEASAT-3B,2014-054B,2026-07-04T14:19:21.968256,1.00270721,.00025432,0.0259,21.0791,66.2104,141.6443,0,U,40147,999,4308,0,-.229E-5,0
HIMAWARI-8,2014-060A,2026-07-04T14:33:27.069120,1.00271032,.00009854,0.0184,25.2039,89.0750,167.3757,0,U,40267,999,4293,0,-.263E-5,0
IRNSS-1C,2014-061A,2026-07-04T07:26:19.482144,1.00274056,.00221123,6.5603,88.6045,4.3399,23.9391,0,U,40269,999,4286,0,-.153E-5,0
INTELSAT 30 (IS-30),2014-062A,2026-07-02T13:31:51.138048,1.00277454,.00014443,0.0214,49.9436,357.0524,341.5175,0,U,40271,999,694,0,-.141E-5,0
ARSAT 1,2014-062B,2026-07-02T15:43:36.200640,1.00270091,.00019991,0.0392,290.9521,168.7347,345.0962,0,U,40272,999,4278,0,-.249E-5,0
GSAT-16,2014-078A,2026-07-02T21:21:34.588224,1.00271348,.00078129,0.0472,262.0432,186.4293,207.9354,0,U,40332,999,4226,0,.96E-6,0
DIRECTV 14,2014-078B,2026-07-02T10:05:17.774304,1.00271936,.0000293,0.0102,26.2148,2.4668,303.8682,0,U,40333,999,4219,0,-.115E-5,0
